[{"OBJECT_NAME":"STARLINK-5899","OBJECT_ID":"2023-037AM","EPOCH":"2026-03-09T22:05:02.027904","MEAN_MOTION":14.98330287,"ECCENTRICITY":0.00022696,"INCLINATION":69.9985,"RA_OF_ASC_NODE":264.0382,"ARG_OF_PERICENTER":267.7681,"MEAN_ANOMALY":92.3218,"EPHEMERIS_TYPE":0,"CLASSIFICATION_TYPE":"U","NORAD_CAT_ID":55949,"ELEMENT_SET_NO":999,"REV_AT_EPOCH":16450,"BSTAR":8.06718e-7,"MEAN_MOTION_DOT":-8.3e-7,"MEAN_MOTION_DDOT":0},{"OBJECT_NAME":"FENGYUN 1C DEB","OBJECT_ID":"1999-025BRA","EPOCH":"2026-03-07T21:38:03.570144","MEAN_MOTION":15.14550758,"ECCENTRICITY":0.01045185,"INCLINATION":98.8762,"RA_OF_ASC_NODE":52.6466,"ARG_OF_PERICENTER":91.2586,"MEAN_ANOMALY":270.0618,"EPHEMERIS_TYPE":0,"CLASSIFICATION_TYPE":"U","NORAD_CAT_ID":31346,"ELEMENT_SET_NO":999,"REV_AT_EPOCH":773,"BSTAR":0.0014203897,"MEAN_MOTION_DOT":0.00030047,"MEAN_MOTION_DDOT":0}]
